OBJECT_NAME,OBJECT_ID,EPOCH,MEAN_MOTION,ECCENTRICITY,INCLINATION,RA_OF_ASC_NODE,ARG_OF_PERICENTER,MEAN_ANOMALY,EPHEMERIS_TYPE,CLASSIFICATION_TYPE,NORAD_CAT_ID,ELEMENT_SET_NO,REV_AT_EPOCH,BSTAR,MEAN_MOTION_DOT,MEAN_MOTION_DDOT
SL-8 R/B,1985-006B,2026-06-30T15:28:35.813280,14.37839936,.0019175,74.0457,53.2995,298.4017,82.1715,0,U,15483,999,17026,.61435394E-4,.159E-5,0
SL-12 R/B(2),1985-042D,2026-06-30T11:09:57.104064,14.22008270,.00369336,71.1063,209.4631,307.8829,153.9932,0,U,15772,999,13042,.26844443E-4,.12E-6,0
SL-14 R/B,1985-069B,2026-06-30T16:46:43.382208,14.86525786,.00189468,82.5274,278.6586,173.3453,186.8019,0,U,15945,999,18962,.47987922E-4,.45E-5,0
SL-16 R/B,1985-097B,2026-06-30T23:42:58.712256,14.16614733,.00052481,71.0033,262.0229,80.9063,91.6028,0,U,16182,999,10327,.27610142E-4,.7E-7,0
SL-14 R/B,1986-006B,2026-06-30T21:56:06.105120,14.86958067,.0074711,82.5270,153.1955,257.0303,102.2564,0,U,16496,999,16603,.51646285E-4,.511E-5,0
COSMOS 1743,1986-034A,2026-06-30T19:23:12.020928,15.68213650,.00047957,82.5282,314.2371,222.0056,138.0838,0,U,16719,999,19792,.50619165E-3,.5678E-3,0
SL-14 R/B,1986-046B,2026-06-30T11:43:19.648704,14.85680522,.00222499,82.4825,333.6057,212.0221,147.9645,0,U,16792,999,14315,.48955262E-4,.45E-5,0
SL-14 R/B,1986-055B,2026-06-30T13:00:02.955168,14.85731608,.00179042,82.5197,20.5760,322.6328,67.1730,0,U,16882,999,13612,.39441466E-4,.367E-5,0
AJISAI (EGS),1986-061A,2026-06-30T23:03:08.274816,12.44516713,.00111442,50.0094,105.0422,215.5894,268.8238,0,U,16908,999,48210,-.71611957E-4,-.107E-5,0
SL-14 R/B,1987-024B,2026-06-30T21:14:05.705664,14.86222650,.00168177,82.5283,346.3741,243.7306,116.2183,0,U,17567,999,10494,.47586202E-4,.443E-5,0
COSMOS 1833,1987-027A,2026-06-30T23:35:33.820512,14.13060062,.00233285,70.9207,87.8717,32.1144,328.1393,0,U,17589,999,2632,.16880235E-3,.268E-5,0
SL-16 R/B,1987-027B,2026-06-30T13:21:24.008832,14.17174470,.00069014,71.0033,38.6558,297.9716,62.0709,0,U,17590,999,3133,.99817213E-4,.153E-5,0
SL-14 R/B,1987-038B,2026-06-30T11:11:44.962368,14.85452904,.0020059,82.5003,190.5636,147.9096,212.3346,0,U,17912,999,9597,.38488482E-4,.357E-5,0
COSMOS 1844,1987-041A,2026-06-30T21:30:42.990624,14.14571148,.00321709,70.8974,155.3895,215.4887,144.4095,0,U,17973,999,1959,.19151727E-3,.321E-5,0
SL-14 R/B,1987-055B,2026-06-30T15:00:50.938848,14.85719322,.00206247,82.4985,242.5614,4.5584,355.5816,0,U,18153,999,8670,.38561273E-4,.36E-5,0
COSMOS 1867,1987-060A,2026-06-30T21:29:59.143488,14.31517200,.00168231,65.0117,349.6660,282.1388,77.7812,0,U,18187,999,3614,.23672755E-4,-.37E-6,0
SL-14 R/B,1988-001B,2026-06-30T21:33:04.530240,14.85618788,.00169337,82.5134,88.8752,220.2439,139.7525,0,U,18749,999,5883,.44066238E-4,.406E-5,0
COSMOS 1933,1988-020A,2026-06-30T22:32:39.740640,15.18804713,.00049693,82.5134,138.8165,143.9111,216.2460,0,U,18958,999,6741,.1926055E-3,.4038E-4,0
SL-3 R/B,1988-032B,2026-06-30T22:16:29.458272,15.20938127,.00249931,97.5259,164.9559,194.8329,165.2176,0,U,19046,999,6931,.18429276E-3,.404E-4,0
SL-16 R/B,1988-039B,2026-06-30T10:31:00.142176,14.19630620,.00214583,71.0127,190.1384,173.0067,187.1362,0,U,19120,999,97438,-.203069E-5,-.52E-6,0
COSMOS 1953,1988-050A,2026-06-30T02:21:55.850976,15.30150879,.00123956,82.5070,45.0130,86.9914,273.2744,0,U,19210,999,5496,.24773832E-3,.7275E-4,0
SL-8 R/B,1988-053B,2026-06-30T15:40:14.863584,14.38972566,.00192788,74.0477,264.2359,54.5880,115.3432,0,U,19257,999,99284,.72433914E-4,.198E-5,0
COSMOS 1975,1988-093A,2026-06-30T23:01:32.969568,15.29505664,.00123469,82.5186,3.8455,126.8365,233.4010,0,U,19573,999,3671,.27445926E-3,.7899E-4,0
SL-14 R/B,1988-093B,2026-06-30T18:15:35.033760,14.85751645,.0021287,82.5321,295.9018,27.8939,132.3305,0,U,19574,999,1780,.45528011E-4,.421E-5,0
SL-16 R/B,1988-102B,2026-06-30T11:54:50.127264,14.16168757,.00151117,71.0004,274.1347,206.8921,153.1420,0,U,19650,999,94286,.10131833E-3,.153E-5,0
INTERCOSMOS 24,1989-080A,2026-06-30T12:25:46.851168,12.59680001,.11879694,82.6051,30.9700,30.9996,335.5989,0,U,20261,999,68100,.18534496E-3,.652E-5,0
SL-14 R/B,1989-080C,2026-06-30T18:17:20.122080,12.50575388,.12283763,82.5942,100.5866,286.3282,60.6392,0,U,20262,999,67428,.40044155E-4,.133E-5,0
DELTA 1 R/B,1989-089B,2026-06-30T11:05:22.042752,14.50739394,.00702469,97.0632,10.8959,125.5373,235.2403,0,U,20323,999,91208,.83354822E-4,.304E-5,0
ARIANE 40 R/B,1990-005H,2026-06-30T04:16:15.891744,14.39933990,.00093098,98.2954,238.3899,220.5342,139.5154,0,U,20443,999,90899,.9280856E-4,.25E-5,0
DELTA 2 R/B(1),1990-008B,2026-06-30T08:30:24.194016,15.70903577,.00643489,35.5995,147.4369,238.5868,120.8567,0,U,20453,999,94377,.57859666E-3,.85618E-3,0
